[{"OBJECT_NAME":"STARLINK-31500","OBJECT_ID":"2024-056K","EPOCH":"2026-03-09T11:50:52.134144","MEAN_MOTION":15.27579367,"ECCENTRICITY":0.00013041,"INCLINATION":42.9972,"RA_OF_ASC_NODE":231.8707,"ARG_OF_PERICENTER":183.2454,"MEAN_ANOMALY":176.839,"EPHEMERIS_TYPE":0,"CLASSIFICATION_TYPE":"U","NORAD_CAT_ID":59305,"ELEMENT_SET_NO":999,"REV_AT_EPOCH":11112,"BSTAR":-8.0925194e-5,"MEAN_MOTION_DOT":-2.488e-5,"MEAN_MOTION_DDOT":0},{"OBJECT_NAME":"USA 55","OBJECT_ID":"1990-028B","EPOCH":"2026-03-09T23:32:27.967200","MEAN_MOTION":15.43003152,"ECCENTRICITY":0.00579189,"INCLINATION":94.0887,"RA_OF_ASC_NODE":87.6293,"ARG_OF_PERICENTER":152.9949,"MEAN_ANOMALY":207.4341,"EPHEMERIS_TYPE":0,"CLASSIFICATION_TYPE":"U","NORAD_CAT_ID":20547,"ELEMENT_SET_NO":999,"REV_AT_EPOCH":98658,"BSTAR":0.00013659834,"MEAN_MOTION_DOT":6.373e-5,"MEAN_MOTION_DDOT":0}]
